NORAD_CAT_ID,OBJECT_NAME,OBJECT_TYPE,EPOCH,MEAN_MOTION,ECCENTRICITY,INCLINATION,RA_OF_ASC_NODE,ARG_OF_PERICENTER,MEAN_ANOMALY,BSTAR,MEAN_MOTION_DOT,MEAN_MOTION_DDOT,TLE_LINE0,TLE_LINE1,TLE_LINE2,SEMIMAJOR_AXIS,PERIOD,APOGEE,PERIGEE,DECAYED
50176.0,STARLINK-3293,PAYLOAD,2024-08-13 21:50:34,15.08773097,3.82e-05,53.2137,300.4315,32.5362,327.5653,0.0024742,0.00039236,0.0,0 STARLINK-3293,1 50176U 21125W   24226.91012456  .00039236  00000-0  24742-2 0  9998,2 50176  53.2137 300.4315 0000382  32.5362 327.5653 15.08773097150174,6918.085,95.442,540.214,539.686,0.0
50176.0,STARLINK-3293,PAYLOAD,2024-08-14 04:12:07,15.08810851,0.0001006,53.2129,299.236,344.083,16.013,0.0026609,0.00042281,0.0,0 STARLINK-3293,1 50176U 21125W   24227.17508999  .00042281  00000-0  26609-2 0  9997,2 50176  53.2129 299.2360 0001006 344.0830  16.0130 15.08810851147081,6917.969,95.439,540.53,539.139,0.0
50176.0,STARLINK-3293,PAYLOAD,2024-08-14 12:09:03,15.08776607,0.0001768,53.2145,297.7538,78.8902,281.2288,-0.0030561,-0.00048515,0.0,0 STARLINK-3293,1 50176U 21125W   24227.50629511 -.00048515  00000-0 -30561-2 0  9998,2 50176  53.2145 297.7538 0001768  78.8902 281.2288 15.08776607147132,6918.074,95.442,541.162,538.716,0.0
50176.0,STARLINK-3293,PAYLOAD,2024-08-14 21:41:21,15.0886699,0.0001922,53.2138,295.969,59.317,300.8011,0.00074021,0.00011521,0.0,0 STARLINK-3293,1 50176U 21125W   24227.90372062  .00011521  00000-0  74021-3 0  9993,2 50176  53.2138 295.9690 0001922  59.3170 300.8011 15.08866990150328,6917.798,95.436,540.992,538.333,0.0
50176.0,STARLINK-3293,PAYLOAD,2024-08-15 08:49:03,15.08850071,0.0001537,53.214,293.8872,58.1159,301.9982,0.00080878,0.00012611,0.0,0 STARLINK-3293,1 50176U 21125W   24228.36739855  .00012611  00000-0  80878-3 0  9999,2 50176  53.2140 293.8872 0001537  58.1159 301.9982 15.08850071150395,6917.85,95.437,540.778,538.651,0.0
50176.0,STARLINK-3293,PAYLOAD,2024-08-15 21:32:07,15.08856603,0.0001012,53.2152,291.5094,50.5274,309.5807,0.0010723,0.00016827,0.0,0 STARLINK-3293,1 50176U 21125W   24228.89731467  .00016827  00000-0  10723-2 0  9992,2 50176  53.2152 291.5094 0001012  50.5274 309.5807 15.08856603147349,6917.83,95.437,540.395,538.995,0.0
50176.0,STARLINK-3293,PAYLOAD,2024-08-16 10:15:12,15.08874333,8.86e-05,53.2143,289.1304,79.8771,280.2321,0.0012988,0.00020462,0.0,0 STARLINK-3293,1 50176U 21125W   24229.42722863  .00020462  00000-0  12988-2 0  9997,2 50176  53.2143 289.1304 0000886  79.8771 280.2321 15.08874333150553,6917.775,95.435,540.253,539.028,0.0
50176.0,STARLINK-3293,PAYLOAD,2024-08-17 03:44:27,15.08855061,0.0001379,53.2165,285.8618,60.3322,299.7807,0.0004476,6.846e-05,0.0,0 STARLINK-3293,1 50176U 21125W   24230.15586957  .00006846  00000-0  44760-3 0  9995,2 50176  53.2165 285.8618 0001379  60.3322 299.7807 15.08855061147538,6917.834,95.437,540.653,538.745,0.0
50176.0,STARLINK-3293,PAYLOAD,2024-08-17 10:05:59,15.08849624,0.0001456,53.2163,284.668,74.9603,285.155,0.00018622,2.678e-05,0.0,0 STARLINK-3293,1 50176U 21125W   24230.42082930  .00002678  00000-0  18622-3 0  9994,2 50176  53.2163 284.6680 0001456  74.9603 285.1550 15.08849624150706,6917.851,95.437,540.723,538.709,0.0
50176.0,STARLINK-3293,PAYLOAD,2024-08-18 09:56:46,15.08849997,0.0001502,53.2156,280.2086,75.7239,284.3919,-3.5081e-05,-8.46e-06,0.0,0 STARLINK-3293,1 50176U 21125W   24231.41442776 -.00000846  00000-0 -35081-4 0  9998,2 50176  53.2156 280.2086 0001502  75.7239 284.3919 15.08849997147727,6917.85,95.437,540.754,538.676,0.0
50176.0,STARLINK-3293,PAYLOAD,2024-08-19 03:26:01,15.08836082,0.0001667,53.2157,276.9403,76.299,283.8187,8.5939e-05,1.08e-05,0.0,0 STARLINK-3293,1 50176U 21125W   24232.14307527  .00001080  00000-0  85939-4 0  9999,2 50176  53.2157 276.9403 0001667  76.2990 283.8187 15.08836082147839,6917.892,95.438,540.911,538.604,0.0
50176.0,STARLINK-3293,PAYLOAD,2024-08-19 09:47:34,15.08833484,0.0001517,53.2166,275.7493,83.6572,276.4593,3.7692e-05,3.12e-06,0.0,0 STARLINK-3293,1 50176U 21125W   24232.40803717  .00000312  00000-0  37692-4 0  9990,2 50176  53.2166 275.7493 0001517  83.6572 276.4593 15.08833484151003,6917.9,95.438,540.815,538.716,0.0
50176.0,STARLINK-3293,PAYLOAD,2024-08-20 08:02:57,15.08842831,0.0001481,53.2157,271.5848,88.7267,271.3894,7.4555e-05,8.99e-06,0.0,0 STARLINK-3293,1 50176U 21125W   24233.33539177  .00000899  00000-0  74555-4 0  9998,2 50176  53.2157 271.5848 0001481  88.7267 271.3894 15.08842831148019,6917.872,95.437,540.761,538.712,0.0
50176.0,STARLINK-3293,PAYLOAD,2024-08-21 01:32:13,15.08833473,0.0001307,53.2153,268.3146,75.5577,284.556,9.9876e-05,1.302e-05,0.0,0 STARLINK-3293,1 50176U 21125W   24234.06403952  .00001302  00000-0  99876-4 0  9993,2 50176  53.2153 268.3146 0001307  75.5577 284.5560 15.08833473148125,6917.9,95.438,540.67,538.861,0.0
50176.0,STARLINK-3293,PAYLOAD,2024-08-21 11:04:31,15.08835619,0.0001329,53.2152,266.5302,74.8195,285.2944,0.00010871,1.442e-05,0.0,0 STARLINK-3293,1 50176U 21125W   24234.46148027  .00001442  00000-0  10871-3 0  9998,2 50176  53.2152 266.5302 0001329  74.8195 285.2944 15.08835619151313,6917.894,95.438,540.678,538.839,0.0
